LANDSAT 8               
1 39084U 13008A   20174.48002672  .00000016  00000-0  13656-4 0  9991
2 39084  98.2255 244.1181 0001111  92.2522 267.8805 14.57102641391431
